[{"OBJECT_NAME":"NEE-02 KRYSAOR","OBJECT_ID":"2013-066AB","EPOCH":"2026-03-09T09:04:24.249216","MEAN_MOTION":14.86160783,"ECCENTRICITY":0.006776,"INCLINATION":97.8816,"RA_OF_ASC_NODE":8.3817,"ARG_OF_PERICENTER":38.0821,"MEAN_ANOMALY":322.5155,"EPHEMERIS_TYPE":0,"CLASSIFICATION_TYPE":"U","NORAD_CAT_ID":39441,"ELEMENT_SET_NO":999,"REV_AT_EPOCH":66137,"BSTAR":0.00046918892,"MEAN_MOTION_DOT":4.234e-5,"MEAN_MOTION_DDOT":0},{"OBJECT_NAME":"STARLINK-33885","OBJECT_ID":"2025-094Y","EPOCH":"2026-03-09T20:55:24.604320","MEAN_MOTION":14.98331241,"ECCENTRICITY":0.00030576,"INCLINATION":70.0018,"RA_OF_ASC_NODE":233.8651,"ARG_OF_PERICENTER":266.2522,"MEAN_ANOMALY":93.8288,"EPHEMERIS_TYPE":0,"CLASSIFICATION_TYPE":"U","NORAD_CAT_ID":63886,"ELEMENT_SET_NO":999,"REV_AT_EPOCH":4723,"BSTAR":0.0004096482,"MEAN_MOTION_DOT":4.798e-5,"MEAN_MOTION_DDOT":0}]
